QB50P1                  
1 40025U 14033R   26131.96036255  .00005531  00000+0  27801-3 0  9995
2 40025  98.0984 140.5824 0008473   2.3989 357.7282 15.17689449647531
DTUSAT-2                
1 40030U 14033W   26131.70767647  .00004164  00000+0  22985-3 0  9998
2 40030  98.0870 127.1351 0008041  13.5952 346.5493 15.14534853647166
QB50P2                  
1 40032U 14033Y   26131.96962588  .00003817  00000+0  21023-3 0  9995
2 40032  98.0757 126.6114 0005895 307.2772  52.7920 15.14687780647181
PERSEUS-M1              
1 40039U 14033AF  26132.10793095  .00001144  00000+0  10866-3 0  9998
2 40039  97.9626  75.6560 0012865  61.0721 299.1788 14.95506048645242
POLYITAN-1              
1 40042U 14033AJ  26132.01164994  .00011526  00000+0  37566-3 0  9993
2 40042  98.0977 154.8860 0005363 270.7833  89.2792 15.31997831648058
TIGRISAT                
1 40043U 14033AK  26132.13598216  .00001479  00000+0  17608-3 0  9996
2 40043  97.7789 282.9872 0049212 191.3333 168.6778 14.85004931640276
CANX-4                  
1 40055U 14034C   26132.07900125  .00000512  00000+0  73067-4 0  9998
2 40055  98.3172   6.0596 0013857 123.8085 236.4448 14.81196017639189
CANX-5                  
1 40056U 14034D   26132.07785101  .00000508  00000+0  72527-4 0  9999
2 40056  98.3173   6.0997 0013848 124.0358 236.2170 14.81213016629999
GONETS-M 10             
1 40063U 14036C   26132.17036059 -.00000060  00000+0 -50380-3 0  9998
2 40063  82.5114 330.0529 0021155 219.1443 140.8107 12.42944159537777
METEOR-M 2              
1 40069U 14037A   26132.17614245  .00000181  00000+0  10209-3 0  9992
2 40069  98.5098 109.1948 0006477 132.0680 228.1050 14.21452144614205
DX1                     
1 40071U 14037C   26132.16318913  .00001242  00000+0  13565-3 0  9994
2 40071  98.3841  91.6882 0008036  38.3054 321.8731 14.89869896640745
UKUBE-1                 
1 40074U 14037F   26131.93204556  .00005087  00000+0  29285-3 0  9995
2 40074  98.4249 131.4144 0000480  53.7826 306.3447 15.12964849643070
GAOFEN-2                
1 40118U 14049A   26132.16231691  .00000179  00000+0  30138-4 0  9990
2 40118  98.0127 196.4006 0007333   2.0086 358.1154 14.80860630633905
BRITE-PL2 (HEWELIUSZ)   
1 40119U 14049B   26131.88409028  .00000790  00000+0  78661-4 0  9992
2 40119  97.9056 243.6164 0013037 226.1248 133.8896 14.94455446636029
CBERS 4                 
1 40336U 14079A   26132.21027749 -.00000011  00000+0  10888-4 0  9994
2 40336  98.3555 190.1659 0001953 105.1654 254.9749 14.35498773598793
SMAP                    
1 40376U 15003A   26132.18236061  .00000269  00000+0  61039-4 0  9999
2 40376  98.1286 139.7860 0001411  69.6055 290.5299 14.63406504602353
GONETS-M 11             
1 40552U 15020A   26132.18691020  .00000073  00000+0  45273-3 0  9998
2 40552  82.4873  53.4198 0017391  79.9569 280.3472 12.42876037504269
GONETS-M 12             
1 40553U 15020B   26132.16081367  .00000028  00000+0  13294-3 0  9992
2 40553  82.4905  54.5504 0016408  65.7776 294.5016 12.42890253504256
GONETS-M 13             
1 40554U 15020C   26132.21418521 -.00000016  00000+0 -18648-3 0  9992
2 40554  82.4869  53.1427 0014949  51.7560 308.4863 12.42868924504232
DMC3-FM1                
1 40715U 15032A   26132.17359677  .00000321  00000+0  42904-4 0  9995
2 40715  97.6512 358.7526 0005774 157.1470 203.0004 14.85695824584562
DMC3-FM2                
1 40716U 15032B   26132.19577198  .00000891  00000+0  10859-3 0  9993
2 40716  97.6567   0.3230 0006155 162.7924 197.3501 14.85703360584567
DMC3-FM3                
1 40717U 15032C   26132.21886347  .00000207  00000+0  29773-4 0  9993
2 40717  97.6620   2.0754 0005363 159.9833 200.1594 14.85701407584571
CARBONITE 1 (CBNT-1)    
1 40718U 15032D   26132.09767605  .00000381  00000+0  52424-4 0  9997
2 40718  97.6505 311.6813 0015777  56.1189 304.1524 14.83472309583998
LILACSAT-2              
1 40908U 15049K   26132.20294527  .00011051  00000+0  19704-3 0  9996
2 40908  97.4700 167.7027 0007704  39.8908 320.2909 15.50238892590175
COSMOS 2507 (RODNIK-S *)
1 40920U 15050A   26132.17071201  .00000028  00000+0  12733-3 0  9997
2 40920  82.4890 102.0936 0011187  69.3809 290.8469 12.42925758482380
COSMOS 2508 (RODNIK-S *)
1 40921U 15050B   26132.20585637 -.00000020  00000+0 -21781-3 0  9992
2 40921  82.4842 100.5903 0015425  99.8884 260.3938 12.42912813482375
COSMOS 2509 (RODNIK-S *)
1 40922U 15050C   26132.14480368  .00000028  00000+0  13042-3 0  9998
2 40922  82.4851 100.7270 0015564 116.1658 244.1025 12.42882590482400
