OBJECT_NAME,OBJECT_ID,EPOCH,MEAN_MOTION,ECCENTRICITY,INCLINATION,RA_OF_ASC_NODE,ARG_OF_PERICENTER,MEAN_ANOMALY,EPHEMERIS_TYPE,CLASSIFICATION_TYPE,NORAD_CAT_ID,ELEMENT_SET_NO,REV_AT_EPOCH,BSTAR,MEAN_MOTION_DOT,MEAN_MOTION_DDOT
QB50P1,2014-033R,2026-05-11T23:02:55.324320,15.17689449,.0008473,98.0984,140.5824,2.3989,357.7282,0,U,40025,999,64753,.27801E-3,.5531E-4,0
DTUSAT-2,2014-033W,2026-05-11T16:59:03.247008,15.14534853,.00080417,98.0870,127.1351,13.5952,346.5493,0,U,40030,999,64716,.22984982E-3,.4164E-4,0
QB50P2,2014-033Y,2026-05-11T23:16:15.676032,15.14687780,.0005895,98.0757,126.6114,307.2772,52.7920,0,U,40032,999,64718,.21023E-3,.3817E-4,0
PERSEUS-M1,2014-033AF,2026-05-12T02:35:25.234080,14.95506048,.0012865,97.9626,75.6560,61.0721,299.1788,0,U,40039,999,64524,.10866E-3,.1144E-4,0
POLYITAN-1,2014-033AJ,2026-05-12T00:16:46.554816,15.31997831,.0005363,98.0977,154.8860,270.7833,89.2792,0,U,40042,999,64805,.37566E-3,.11526E-3,0
TIGRISAT,2014-033AK,2026-05-12T03:15:48.858624,14.85004931,.0049212,97.7789,282.9872,191.3333,168.6778,0,U,40043,999,64027,.17608E-3,.1479E-4,0
CANX-4,2014-034C,2026-05-12T01:53:45.708000,14.81196017,.0013857,98.3172,6.0596,123.8085,236.4448,0,U,40055,999,63918,.73067E-4,.512E-5,0
CANX-5,2014-034D,2026-05-12T01:52:06.327264,14.81213016,.0013848,98.3173,6.0997,124.0358,236.2170,0,U,40056,999,62999,.72527E-4,.508E-5,0
GONETS-M 10,2014-036C,2026-05-12T04:05:19.154976,12.42944159,.0021155,82.5114,330.0529,219.1443,140.8107,0,U,40063,999,53777,-.5038E-3,-.6E-6,0
METEOR-M 2,2014-037A,2026-05-12T04:13:38.707680,14.21452144,.0006477,98.5098,109.1948,132.0680,228.1050,0,U,40069,999,61420,.10209E-3,.181E-5,0
DX1,2014-037C,2026-05-12T03:54:59.540832,14.89869896,.0008036,98.3841,91.6882,38.3054,321.8731,0,U,40071,999,64074,.13565E-3,.1242E-4,0
UKUBE-1,2014-037F,2026-05-11T22:22:08.736384,15.12964849,.000048,98.4249,131.4144,53.7826,306.3447,0,U,40074,999,64307,.29285E-3,.5087E-4,0
GAOFEN-2,2014-049A,2026-05-12T03:53:44.181024,14.80860630,.0007333,98.0127,196.4006,2.0086,358.1154,0,U,40118,999,63390,.30138E-4,.179E-5,0
BRITE-PL2 (HEWELIUSZ),2014-049B,2026-05-11T21:13:05.400192,14.94455446,.0013037,97.9056,243.6164,226.1248,133.8896,0,U,40119,999,63602,.78661E-4,.79E-5,0
CBERS 4,2014-079A,2026-05-12T05:02:47.975136,14.35498773,.0001953,98.3555,190.1659,105.1654,254.9749,0,U,40336,999,59879,.10888E-4,-.11E-6,0
SMAP,2015-003A,2026-05-12T04:22:35.956704,14.63406504,.0001411,98.1286,139.7860,69.6055,290.5299,0,U,40376,999,60235,.61039E-4,.269E-5,0
GONETS-M 11,2015-020A,2026-05-12T04:29:09.041280,12.42876037,.0017391,82.4873,53.4198,79.9569,280.3472,0,U,40552,999,50426,.45273E-3,.73E-6,0
GONETS-M 12,2015-020B,2026-05-12T03:51:34.301088,12.42890253,.0016408,82.4905,54.5504,65.7776,294.5016,0,U,40553,999,50425,.13294E-3,.28E-6,0
GONETS-M 13,2015-020C,2026-05-12T05:08:25.602144,12.42868924,.0014949,82.4869,53.1427,51.7560,308.4863,0,U,40554,999,50423,-.18648E-3,-.16E-6,0
DMC3-FM1,2015-032A,2026-05-12T04:09:58.760928,14.85695824,.0005774,97.6512,358.7526,157.1470,203.0004,0,U,40715,999,58456,.42904E-4,.321E-5,0
DMC3-FM2,2015-032B,2026-05-12T04:41:54.699072,14.85703360,.0006155,97.6567,0.3230,162.7924,197.3501,0,U,40716,999,58456,.10859E-3,.891E-5,0
DMC3-FM3,2015-032C,2026-05-12T05:15:09.803808,14.85701407,.0005363,97.6620,2.0754,159.9833,200.1594,0,U,40717,999,58457,.29773E-4,.207E-5,0
CARBONITE 1 (CBNT-1),2015-032D,2026-05-12T02:20:39.210720,14.83472309,.0015777,97.6505,311.6813,56.1189,304.1524,0,U,40718,999,58399,.52424E-4,.381E-5,0
LILACSAT-2,2015-049K,2026-05-12T04:52:14.471328,15.50238892,.0007704,97.4700,167.7027,39.8908,320.2909,0,U,40908,999,59017,.19704E-3,.11051E-3,0
COSMOS 2507 (RODNIK-S 13),2015-050A,2026-05-12T04:05:49.517664,12.42925758,.0011187,82.4890,102.0936,69.3809,290.8469,0,U,40920,999,48238,.12733E-3,.28E-6,0
COSMOS 2508 (RODNIK-S 14),2015-050B,2026-05-12T04:56:25.990368,12.42912813,.0015425,82.4842,100.5903,99.8884,260.3938,0,U,40921,999,48237,-.21781E-3,-.2E-6,0
COSMOS 2509 (RODNIK-S 15),2015-050C,2026-05-12T03:28:31.037952,12.42882590,.0015564,82.4851,100.7270,116.1658,244.1025,0,U,40922,999,48240,.13042E-3,.28E-6,0
